{
  "links" : {
    "next" : "https://api.nasa.gov/neo/rest/v1/feed?start_date=2010-04-16&end_date=2010-04-16&detailed=true&api_key=t0TVs3DtDT2H8Oy2Zy8m2eVrNsAVKAexjcZXUckd",
    "prev" : "https://api.nasa.gov/neo/rest/v1/feed?start_date=2010-04-14&end_date=2010-04-14&detailed=true&api_key=t0TVs3DtDT2H8Oy2Zy8m2eVrNsAVKAexjcZXUckd",
    "self" : "https://api.nasa.gov/neo/rest/v1/feed?start_date=2010-04-15&end_date=2010-04-15&detailed=true&api_key=t0TVs3DtDT2H8Oy2Zy8m2eVrNsAVKAexjcZXUckd"
  },
  "element_count" : 4,
  "near_earth_objects" : {
    "2010-04-15" : [ {
      "links" : {
        "self" : "https://api.nasa.gov/neo/rest/v1/neo/2218017?api_key=t0TVs3DtDT2H8Oy2Zy8m2eVrNsAVKAexjcZXUckd"
      },
      "neo_reference_id" : "2218017",
      "name" : "218017 (2001 XV266)",
      "nasa_jpl_url" : "http://ssd.jpl.nasa.gov/sbdb.cgi?sstr=2218017",
      "absolute_magnitude_h" : 19.6,
      "estimated_diameter" : {
        "kilometers" : {
          "estimated_diameter_min" : 0.3195618867,
          "estimated_diameter_max" : 0.7145621017
        },
        "meters" : {
          "estimated_diameter_min" : 319.5618867213,
          "estimated_diameter_max" : 714.5621017269
        },
        "miles" : {
          "estimated_diameter_min" : 0.1985664891,
          "estimated_diameter_max" : 0.4440081677
        },
        "feet" : {
          "estimated_diameter_min" : 1048.4314204307,
          "estimated_diameter_max" : 2344.3639258298
        }
      },
      "is_potentially_hazardous_asteroid" : false,
      "close_approach_data" : [ {
        "close_approach_date" : "2010-04-15",
        "epoch_date_close_approach" : 1271314800000,
        "relative_velocity" : {
          "kilometers_per_second" : "6.5207319565",
          "kilometers_per_hour" : "23474.6350434285",
          "miles_per_hour" : "14586.2253135126"
        },
        "miss_distance" : {
          "astronomical" : "0.1856371502",
          "lunar" : "72.212852478",
          "kilometers" : "27770922",
          "miles" : "17256050"
        },
        "orbiting_body" : "Earth"
      } ],
      "orbital_data" : {
        "orbit_id" : "51",
        "orbit_determination_date" : "2017-04-06 09:25:17",
        "orbit_uncertainty" : "0",
        "minimum_orbit_intersection" : ".105939",
        "jupiter_tisserand_invariant" : "5.270",
        "epoch_osculation" : "2458000.5",
        "eccentricity" : ".1926178642301258",
        "semi_major_axis" : "1.196362503013807",
        "inclination" : "12.00358403194008",
        "ascending_node_longitude" : "214.1169811359223",
        "orbital_period" : "477.96117038843",
        "perihelion_distance" : ".9659217128382804",
        "perihelion_argument" : "265.0268082238151",
        "aphelion_distance" : "1.426803293189334",
        "perihelion_time" : "2458077.556599915221",
        "mean_anomaly" : "301.9610259407987",
        "mean_motion" : ".7531992603236678",
        "equinox" : "J2000"
      }
    }, {
      "links" : {
        "self" : "https://api.nasa.gov/neo/rest/v1/neo/2396593?api_key=t0TVs3DtDT2H8Oy2Zy8m2eVrNsAVKAexjcZXUckd"
      },
      "neo_reference_id" : "2396593",
      "name" : "396593 (2001 HC)",
      "nasa_jpl_url" : "http://ssd.jpl.nasa.gov/sbdb.cgi?sstr=2396593",
      "absolute_magnitude_h" : 19.0,
      "estimated_diameter" : {
        "kilometers" : {
          "estimated_diameter_min" : 0.4212646106,
          "estimated_diameter_max" : 0.9419763057
        },
        "meters" : {
          "estimated_diameter_min" : 421.2646105562,
          "estimated_diameter_max" : 941.9763057186
        },
        "miles" : {
          "estimated_diameter_min" : 0.2617616123,
          "estimated_diameter_max" : 0.5853167591
        },
        "feet" : {
          "estimated_diameter_min" : 1382.1017848971,
          "estimated_diameter_max" : 3090.4735428537
        }
      },
      "is_potentially_hazardous_asteroid" : false,
      "close_approach_data" : [ {
        "close_approach_date" : "2010-04-15",
        "epoch_date_close_approach" : 1271314800000,
        "relative_velocity" : {
          "kilometers_per_second" : "14.8590825257",
          "kilometers_per_hour" : "53492.6970926492",
          "miles_per_hour" : "33238.2817018186"
        },
        "miss_distance" : {
          "astronomical" : "0.1692644536",
          "lunar" : "65.8438720703",
          "kilometers" : "25321602",
          "miles" : "15734114"
        },
        "orbiting_body" : "Earth"
      } ],
      "orbital_data" : {
        "orbit_id" : "52",
        "orbit_determination_date" : "2017-04-06 09:21:55",
        "orbit_uncertainty" : "0",
        "minimum_orbit_intersection" : ".105547",
        "jupiter_tisserand_invariant" : "6.599",
        "epoch_osculation" : "2458000.5",
        "eccentricity" : ".4993659075098179",
        "semi_major_axis" : ".8746362344900773",
        "inclination" : "23.74080552331273",
        "ascending_node_longitude" : "32.61481696018888",
        "orbital_period" : "298.7718146790418",
        "perihelion_distance" : ".4378727175129701",
        "perihelion_argument" : "28.16835412789172",
        "aphelion_distance" : "1.311399751467185",
        "perihelion_time" : "2457902.647884907458",
        "mean_anomaly" : "117.9052363796694",
        "mean_motion" : "1.204932936484431",
        "equinox" : "J2000"
      }
    }, {
      "links" : {
        "self" : "https://api.nasa.gov/neo/rest/v1/neo/3373174?api_key=t0TVs3DtDT2H8Oy2Zy8m2eVrNsAVKAexjcZXUckd"
      },
      "neo_reference_id" : "3373174",
      "name" : "(2007 GF)",
      "nasa_jpl_url" : "http://ssd.jpl.nasa.gov/sbdb.cgi?sstr=3373174",
      "absolute_magnitude_h" : 21.1,
      "estimated_diameter" : {
        "kilometers" : {
          "estimated_diameter_min" : 0.160160338,
          "estimated_diameter_max" : 0.358129403
        },
        "meters" : {
          "estimated_diameter_min" : 160.1603379786,
          "estimated_diameter_max" : 358.1294030194
        },
        "miles" : {
          "estimated_diameter_min" : 0.0995189894,
          "estimated_diameter_max" : 0.2225312253
        },
        "feet" : {
          "estimated_diameter_min" : 525.4604432536,
          "estimated_diameter_max" : 1174.9652706022
        }
      },
      "is_potentially_hazardous_asteroid" : false,
      "close_approach_data" : [ {
        "close_approach_date" : "2010-04-15",
        "epoch_date_close_approach" : 1271314800000,
        "relative_velocity" : {
          "kilometers_per_second" : "10.7175207161",
          "kilometers_per_hour" : "38583.07457782",
          "miles_per_hour" : "23974.0220897571"
        },
        "miss_distance" : {
          "astronomical" : "0.4374145733",
          "lunar" : "170.1542816162",
          "kilometers" : "65436292",
          "miles" : "40660228"
        },
        "orbiting_body" : "Earth"
      } ],
      "orbital_data" : {
        "orbit_id" : "15",
        "orbit_determination_date" : "2017-04-06 09:06:37",
        "orbit_uncertainty" : "1",
        "minimum_orbit_intersection" : ".12718",
        "jupiter_tisserand_invariant" : "4.876",
        "epoch_osculation" : "2458000.5",
        "eccentricity" : ".3783893097966663",
        "semi_major_axis" : "1.300605021294187",
        "inclination" : "18.8814620918246",
        "ascending_node_longitude" : "58.98886138751251",
        "orbital_period" : "541.772013061029",
        "perihelion_distance" : ".8084699849686011",
        "perihelion_argument" : "32.97192460340033",
        "aphelion_distance" : "1.792740057619773",
        "perihelion_time" : "2457895.444669899673",
        "mean_anomaly" : "69.80781200275335",
        "mean_motion" : ".6644861515935248",
        "equinox" : "J2000"
      }
    }, {
      "links" : {
        "self" : "https://api.nasa.gov/neo/rest/v1/neo/3516489?api_key=t0TVs3DtDT2H8Oy2Zy8m2eVrNsAVKAexjcZXUckd"
      },
      "neo_reference_id" : "3516489",
      "name" : "(2010 GP67)",
      "nasa_jpl_url" : "http://ssd.jpl.nasa.gov/sbdb.cgi?sstr=3516489",
      "absolute_magnitude_h" : 22.4,
      "estimated_diameter" : {
        "kilometers" : {
          "estimated_diameter_min" : 0.0880146521,
          "estimated_diameter_max" : 0.1968067451
        },
        "meters" : {
          "estimated_diameter_min" : 88.0146520901,
          "estimated_diameter_max" : 196.8067450894
        },
        "miles" : {
          "estimated_diameter_min" : 0.0546897524,
          "estimated_diameter_max" : 0.122290004
        },
        "feet" : {
          "estimated_diameter_min" : 288.7619911632,
          "estimated_diameter_max" : 645.6914415591
        }
      },
      "is_potentially_hazardous_asteroid" : false,
      "close_approach_data" : [ {
        "close_approach_date" : "2010-04-15",
        "epoch_date_close_approach" : 1271314800000,
        "relative_velocity" : {
          "kilometers_per_second" : "10.5254358498",
          "kilometers_per_hour" : "37891.5690592555",
          "miles_per_hour" : "23544.3474524024"
        },
        "miss_distance" : {
          "astronomical" : "0.1809524305",
          "lunar" : "70.3904953003",
          "kilometers" : "27070098",
          "miles" : "16820580"
        },
        "orbiting_body" : "Earth"
      } ],
      "orbital_data" : {
        "orbit_id" : "14",
        "orbit_determination_date" : "2017-08-29 06:19:11",
        "orbit_uncertainty" : "0",
        "minimum_orbit_intersection" : ".0179445",
        "jupiter_tisserand_invariant" : "5.566",
        "epoch_osculation" : "2458000.5",
        "eccentricity" : ".1073199442521597",
        "semi_major_axis" : "1.114015101565765",
        "inclination" : "13.27133880998655",
        "ascending_node_longitude" : "211.4593746941593",
        "orbital_period" : "429.4721873313424",
        "perihelion_distance" : ".994459062969663",
        "perihelion_argument" : "44.61903611767051",
        "aphelion_distance" : "1.233571140161867",
        "perihelion_time" : "2457916.670815468142",
        "mean_anomaly" : "70.26882606529705",
        "mean_motion" : ".8382382156967387",
        "equinox" : "J2000"
      }
    } ]
  }
}